IRIDIUM 155             
1 43573U 18061E   25062.52243276  .00000082  00000+0  22103-4 0  9995
2 43573  86.3914 253.3218 0002330  84.7611 275.3851 14.34218808345905
IRIDIUM 154             
1 43574U 18061F   25061.59641653 -.00000035  00000+0 -19601-4 0  9992
2 43574  86.3920 253.8197 0001874  89.8748 270.2662 14.34217197345817
IRIDIUM 163             
1 43575U 18061G   25061.92623131 -.00000007  00000+0 -97304-5 0  9997
2 43575  86.3918 253.6119 0002053  92.9053 267.2378 14.34217406345836
IRIDIUM 156             
1 43576U 18061H   25061.90086116 -.00000008  00000+0 -99840-5 0  9990
2 43576  86.3918 253.6294 0002143  80.2032 279.9405 14.34217478345827
IRIDIUM 164             
1 43577U 18061J   25062.57951787 -.00000043  00000+0 -22329-4 0  9996
2 43577  86.3920 253.3782 0001697  89.4973 270.6418 14.34217131345961
IRIDIUM 159             
1 43578U 18061K   25061.91988752  .00000029  00000+0  31272-5 0  9996
2 43578  86.3914 253.6007 0001973  96.2123 263.9298 14.34217962345837
IRIDIUM 180             
1 43922U 19002A   25061.84961790  .00000157  00000+0  49127-4 0  9999
2 43922  86.4034 190.5562 0002138  97.3485 262.7954 14.34218025321433
IRIDIUM 176             
1 43923U 19002B   25061.87091053  .00002076  00000+0  32528-3 0  9997
2 43923  86.6160 190.5485 0002260 112.2695 247.8762 14.72263491329906
IRIDIUM 168             
1 43924U 19002C   25061.84327616  .00000045  00000+0  91466-5 0  9994
2 43924  86.4035 190.6227 0002052  99.4290 260.7138 14.34216742321411
IRIDIUM 173             
1 43925U 19002D   25061.90035957  .00000080  00000+0  21382-4 0  9994
2 43925  86.4030 190.5071 0002223  95.7527 264.3923 14.34216587321403
IRIDIUM 169             
1 43926U 19002E   25061.87306804  .00000779  00000+0  24824-3 0  9991
2 43926  86.4227 222.0982 0003644  87.0825 273.0790 14.38601396322463
IRIDIUM 172             
1 43927U 19002F   25061.89401587  .00000041  00000+0  74327-5 0  9995
2 43927  86.4034 190.5163 0002042 101.1655 258.9771 14.34215966321415
IRIDIUM 175             
1 43928U 19002G   25061.79771327  .00000373  00000+0  55156-4 0  9993
2 43928  86.1558 149.1822 0002723  74.3002 285.8515 14.72226959329889
IRIDIUM 171             
1 43929U 19002H   25061.87498727  .00000164  00000+0  51641-4 0  9996
2 43929  86.4040 190.7779 0001697  87.2786 272.8604 14.34216060321408
IRIDIUM 170             
1 43930U 19002J   25061.87709768  .00002074  00000+0  32509-3 0  9991
2 43930  86.6160 190.5512 0002403  84.4972 275.6519 14.72234403329913
IRIDIUM 167             
1 43931U 19002K   25061.86863100  .00000555  00000+0  19107-3 0  9993
2 43931  86.4034 190.5451 0002060  84.6535 275.4896 14.34213282321402
IRIDIUM 181             
1 56726U 23068S   25062.01324157  .00000231  00000+0  62573-4 0  9995
2 56726  86.4455 253.5795 0001888  76.7162 283.4249 14.43307301 94472
IRIDIUM 177             
1 56727U 23068T   25061.86899085  .00002640  00000+0  34401-3 0  9999
2 56727  86.2027 192.5448 0002296  87.9185 272.2299 14.80227434 96647
IRIDIUM 174             
1 56728U 23068U   25061.79595563  .00000130  00000+0  13576-4 0  9999
2 56728  86.2030 192.7036 0001406  91.6274 268.5108 14.80220095 96632
IRIDIUM 178             
1 56729U 23068V   25061.92572351  .00002663  00000+0  34710-3 0  9990
2 56729  86.5775 222.3235 0001226  94.5351 265.6010 14.80229515 96659
IRIDIUM 179             
1 56730U 23068W   25061.92029245  .00001072  00000+0  13758-3 0  9993
2 56730  86.6772 229.7129 0001984  95.9801 264.1646 14.80242675 96659
